[{"OBJECT_NAME":"STARLINK-3760","OBJECT_ID":"2022-041AP","EPOCH":"2026-03-09T11:53:46.847040","MEAN_MOTION":15.08837897,"ECCENTRICITY":0.00014262,"INCLINATION":53.2161,"RA_OF_ASC_NODE":99.6065,"ARG_OF_PERICENTER":95.0099,"MEAN_ANOMALY":265.1056,"EPHEMERIS_TYPE":0,"CLASSIFICATION_TYPE":"U","NORAD_CAT_ID":52298,"ELEMENT_SET_NO":999,"REV_AT_EPOCH":21448,"BSTAR":-2.8997553e-5,"MEAN_MOTION_DOT":-7.49e-6,"MEAN_MOTION_DDOT":0},{"OBJECT_NAME":"CZ-6A DEB","OBJECT_ID":"2024-140KE","EPOCH":"2026-03-09T13:17:54.060288","MEAN_MOTION":15.16973657,"ECCENTRICITY":0.0047014,"INCLINATION":88.8608,"RA_OF_ASC_NODE":269.4441,"ARG_OF_PERICENTER":134.0266,"MEAN_ANOMALY":226.4867,"EPHEMERIS_TYPE":0,"CLASSIFICATION_TYPE":"U","NORAD_CAT_ID":60875,"ELEMENT_SET_NO":999,"REV_AT_EPOCH":8467,"BSTAR":0.004516425,"MEAN_MOTION_DOT":0.00092692,"MEAN_MOTION_DDOT":0}]
